[{"OBJECT_NAME":"STARLINK-34997","OBJECT_ID":"2025-192Q","EPOCH":"2026-03-09T22:00:01.999584","MEAN_MOTION":15.30190228,"ECCENTRICITY":8.283e-5,"INCLINATION":53.1578,"RA_OF_ASC_NODE":231.3164,"ARG_OF_PERICENTER":37.1136,"MEAN_ANOMALY":145.9473,"EPHEMERIS_TYPE":0,"CLASSIFICATION_TYPE":"U","NORAD_CAT_ID":65418,"ELEMENT_SET_NO":999,"REV_AT_EPOCH":578,"BSTAR":0.002464819,"MEAN_MOTION_DOT":0.00073342,"MEAN_MOTION_DDOT":0},{"OBJECT_NAME":"TRANSPORTER-1 OBJECT L","OBJECT_ID":"2021-006L","EPOCH":"2026-03-09T22:38:42.795168","MEAN_MOTION":15.33192932,"ECCENTRICITY":0.00114726,"INCLINATION":97.2368,"RA_OF_ASC_NODE":117.6447,"ARG_OF_PERICENTER":180.5165,"MEAN_ANOMALY":179.6068,"EPHEMERIS_TYPE":0,"CLASSIFICATION_TYPE":"U","NORAD_CAT_ID":47423,"ELEMENT_SET_NO":999,"REV_AT_EPOCH":28445,"BSTAR":0.00025636794,"MEAN_MOTION_DOT":8.162e-5,"MEAN_MOTION_DDOT":0}]
